{
    "links": {
        "self": "http://www.neowsapp.com/rest/v1/neo/3802080?api_key=iIulBulltgU6a56xZRHN4H3l9WmuAYTsLGpBGhQ2"
    },
    "id": "3802080",
    "neo_reference_id": "3802080",
    "name": "(2018 FM4)",
    "designation": "2018 FM4",
    "nasa_jpl_url": "http://ssd.jpl.nasa.gov/sbdb.cgi?sstr=3802080",
    "absolute_magnitude_h": 21.7,
    "estimated_diameter": {
        "kilometers": {
            "estimated_diameter_min": 0.1214940408,
            "estimated_diameter_max": 0.2716689341
        },
        "meters": {
            "estimated_diameter_min": 121.4940407996,
            "estimated_diameter_max": 271.6689340891
        },
        "miles": {
            "estimated_diameter_min": 0.0754928736,
            "estimated_diameter_max": 0.1688071972
        },
        "feet": {
            "estimated_diameter_min": 398.6025088171,
            "estimated_diameter_max": 891.3023057169
        }
    },
    "is_potentially_hazardous_asteroid": false,
    "close_approach_data": [
        {
            "close_approach_date": "1951-12-25",
            "close_approach_date_full": "1951-Dec-25 12:15",
            "epoch_date_close_approach": -568640700000,
            "relative_velocity": {
                "kilometers_per_second": "7.5587057482",
                "kilometers_per_hour": "27211.3406935876",
                "miles_per_hour": "16908.0688881906"
            },
            "miss_distance": {
                "astronomical": "0.5400686934",
                "lunar": "210.0867217326",
                "kilometers": "80793126.186323058",
                "miles": "50202520.6903638804"
            },
            "orbiting_body": "Juptr"
        },
        {
            "close_approach_date": "2011-04-13",
            "close_approach_date_full": "2011-Apr-13 14:06",
            "epoch_date_close_approach": 1302703560000,
            "relative_velocity": {
                "kilometers_per_second": "8.6279163776",
                "kilometers_per_hour": "31060.4989594105",
                "miles_per_hour": "19299.7861450848"
            },
            "miss_distance": {
                "astronomical": "1.3241954624",
                "lunar": "515.1120348736",
                "kilometers": "198096820.638705088",
                "miles": "123091656.5089346944"
            },
            "orbiting_body": "Juptr"
        },
        {
            "close_approach_date": "2018-04-07",
            "close_approach_date_full": "2018-Apr-07 11:06",
            "epoch_date_close_approach": 1523099160000,
            "relative_velocity": {
                "kilometers_per_second": "17.3547244907",
                "kilometers_per_hour": "62477.0081665805",
                "miles_per_hour": "38820.7832132844"
            },
            "miss_distance": {
                "astronomical": "0.304886627",
                "lunar": "118.600897903",
                "kilometers": "45610389.99068449",
                "miles": "28340982.151406362"
            },
            "orbiting_body": "Earth"
        },
        {
            "close_approach_date": "2035-01-06",
            "close_approach_date_full": "2035-Jan-06 14:09",
            "epoch_date_close_approach": 2051705340000,
            "relative_velocity": {
                "kilometers_per_second": "7.6810923681",
                "kilometers_per_hour": "27651.9325251682",
                "miles_per_hour": "17181.835518208"
            },
            "miss_distance": {
                "astronomical": "0.5280535525",
                "lunar": "205.4128319225",
                "kilometers": "78995686.699933175",
                "miles": "49085643.583800815"
            },
            "orbiting_body": "Juptr"
        },
        {
            "close_approach_date": "2177-05-09",
            "close_approach_date_full": "2177-May-09 02:42",
            "epoch_date_close_approach": 6543427320000,
            "relative_velocity": {
                "kilometers_per_second": "7.5969866437",
                "kilometers_per_hour": "27349.1519173542",
                "miles_per_hour": "16993.6994233138"
            },
            "miss_distance": {
                "astronomical": "0.543026696",
                "lunar": "211.237384744",
                "kilometers": "81235637.07473752",
                "miles": "50477484.206196976"
            },
            "orbiting_body": "Juptr"
        }
    ],
    "orbital_data": {
        "orbit_id": "6",
        "orbit_determination_date": "2018-04-20 06:26:26",
        "first_observation_date": "2018-03-20",
        "last_observation_date": "2018-04-19",
        "data_arc_in_days": 30,
        "observations_used": 41,
        "orbit_uncertainty": "7",
        "minimum_orbit_intersection": ".278516",
        "jupiter_tisserand_invariant": "2.874",
        "epoch_osculation": "2459000.5",
        "eccentricity": ".5544802838743258",
        "semi_major_axis": "2.869156332365517",
        "inclination": "30.90551099781498",
        "ascending_node_longitude": "16.99181383500915",
        "orbital_period": "1775.128290442075",
        "perihelion_distance": "1.278265714715666",
        "perihelion_argument": "186.1051305395026",
        "aphelion_distance": "4.460046950015368",
        "perihelion_time": "2458214.858548154313",
        "mean_anomaly": "159.3298491085461",
        "mean_motion": ".2028022436115567",
        "equinox": "J2000",
        "orbit_class": {
            "orbit_class_type": "AMO",
            "orbit_class_description": "Near-Earth asteroid orbits similar to that of 1221 Amor",
            "orbit_class_range": "1.017 AU < q (perihelion) < 1.3 AU"
        }
    },
    "is_sentry_object": false
}